{
  "type": "FeatureCollection",
  "features": [
    {
      "type": "Feature",
      "properties": {
        "norad_id": 32198,
        "name": "FENGYUN 1C DEB",
        "group": "fengyun-1c-debris",
        "lat": 72.58866489739628,
        "lon": 102.55667986605458,
        "alt_km": 902.0668352176745,
        "timestamp": "2025-12-09T07:41:33.494756+00:00",
        "meta_object_name": "FENGYUN 1C DEB",
        "meta_object_id": "1999-025CUU",
        "meta_epoch": "2025-12-05T16:24:25.007328",
        "meta_mean_motion": 14.08762004,
        "meta_eccentricity": 0.00945405,
        "meta_inclination": 98.3435,
        "meta_ra_of_asc_node": 127.0916,
        "meta_arg_of_pericenter": 312.942,
        "meta_mean_anomaly": 46.3848,
        "meta_ephemeris_type": 0,
        "meta_classification_type": "U",
        "meta_norad_cat_id": 32198,
        "meta_element_set_no": 999,
        "meta_rev_at_epoch": 56846,
        "meta_bstar": 0.0028001199,
        "meta_mean_motion_dot": 4.993e-05,
        "meta_mean_motion_ddot": 0,
        "tle_line1": "1 32198U 99025CUU 25339.68362277  .00004993  00000+0  28001-2 0  9998",
        "tle_line2": "2 32198  98.3435 127.0916 0094540 312.9420  46.3848 14.08762004568460"
      },
      "geometry": {
        "type": "Point",
        "coordinates": [
          102.55667986605458,
          72.58866489739628
        ]
      }
    },
    {
      "type": "Feature",
      "properties": {
        "norad_id": 32200,
        "name": "FENGYUN 1C DEB",
        "group": "fengyun-1c-debris",
        "lat": -77.6842006539403,
        "lon": 167.19907926511465,
        "alt_km": 824.9559140794108,
        "timestamp": "2025-12-09T07:41:33.494766+00:00",
        "meta_object_name": "FENGYUN 1C DEB",
        "meta_object_id": "1999-025CUW",
        "meta_epoch": "2025-12-08T10:06:13.411584",
        "meta_mean_motion": 14.15674101,
        "meta_eccentricity": 0.00394874,
        "meta_inclination": 98.7916,
        "meta_ra_of_asc_node": 31.4523,
        "meta_arg_of_pericenter": 302.3884,
        "meta_mean_anomaly": 57.3471,
        "meta_ephemeris_type": 0,
        "meta_classification_type": "U",
        "meta_norad_cat_id": 32200,
        "meta_element_set_no": 999,
        "meta_rev_at_epoch": 94302,
        "meta_bstar": 0.0016895346,
        "meta_mean_motion_dot": 3.294e-05,
        "meta_mean_motion_ddot": 0,
        "tle_line1": "1 32200U 99025CUW 25342.42098856  .00003294  00000+0  16895-2 0  9998",
        "tle_line2": "2 32200  98.7916  31.4523 0039487 302.3884  57.3471 14.15674101943021"
      },
      "geometry": {
        "type": "Point",
        "coordinates": [
          167.19907926511465,
          -77.6842006539403
        ]
      }
    },
    {
      "type": "Feature",
      "properties": {
        "norad_id": 32203,
        "name": "FENGYUN 1C DEB",
        "group": "fengyun-1c-debris",
        "lat": -39.31169335576202,
        "lon": -119.27137229105668,
        "alt_km": 531.11520111545,
        "timestamp": "2025-12-09T07:41:33.494777+00:00",
        "meta_object_name": "FENGYUN 1C DEB",
        "meta_object_id": "1999-025CUZ",
        "meta_epoch": "2025-12-08T03:48:07.848288",
        "meta_mean_motion": 15.40242666,
        "meta_eccentricity": 0.0146,
        "meta_inclination": 97.0168,
        "meta_ra_of_asc_node": 233.8247,
        "meta_arg_of_pericenter": 108.187,
        "meta_mean_anomaly": 253.5334,
        "meta_ephemeris_type": 0,
        "meta_classification_type": "U",
        "meta_norad_cat_id": 32203,
        "meta_element_set_no": 999,
        "meta_rev_at_epoch": 75027,
        "meta_bstar": 0.00082304953,
        "meta_mean_motion_dot": 0.00048596,
        "meta_mean_motion_ddot": 0,
        "tle_line1": "1 32203U 99025CUZ 25342.15842417  .00048596  00000+0  82305-3 0  9995",
        "tle_line2": "2 32203  97.0168 233.8247 0146000 108.1870 253.5334 15.40242666750270"
      },
      "geometry": {
        "type": "Point",
        "coordinates": [
          -119.27137229105668,
          -39.31169335576202
        ]
      }
    },
    {
      "type": "Feature",
      "properties": {
        "norad_id": 32205,
        "name": "FENGYUN 1C DEB",
        "group": "fengyun-1c-debris",
        "lat": -74.02235044293023,
        "lon": 135.08293787634446,
        "alt_km": 848.244021601482,
        "timestamp": "2025-12-09T07:41:33.494787+00:00",
        "meta_object_name": "FENGYUN 1C DEB",
        "meta_object_id": "1999-025CVB",
        "meta_epoch": "2025-12-08T06:47:29.461632",
        "meta_mean_motion": 14.13907007,
        "meta_eccentricity": 0.0010166,
        "meta_inclination": 98.6784,
        "meta_ra_of_asc_node": 346.313,
        "meta_arg_of_pericenter": 305.8127,
        "meta_mean_anomaly": 72.5568,
        "meta_ephemeris_type": 0,
        "meta_classification_type": "U",
        "meta_norad_cat_id": 32205,
        "meta_element_set_no": 999,
        "meta_rev_at_epoch": 94435,
        "meta_bstar": 0.00030058079,
        "meta_mean_motion_dot": 5.27e-06,
        "meta_mean_motion_ddot": 0,
        "tle_line1": "1 32205U 99025CVB 25342.28297988  .00000527  00000+0  30058-3 0  9998",
        "tle_line2": "2 32205  98.6784 346.3130 0010166 305.8127  72.5568 14.13907007944356"
      },
      "geometry": {
        "type": "Point",
        "coordinates": [
          135.08293787634446,
          -74.02235044293023
        ]
      }
    },
    {
      "type": "Feature",
      "properties": {
        "norad_id": 32209,
        "name": "FENGYUN 1C DEB",
        "group": "fengyun-1c-debris",
        "lat": -42.30727830625147,
        "lon": -60.37812676519294,
        "alt_km": 1024.078665985654,
        "timestamp": "2025-12-09T07:41:33.494797+00:00",
        "meta_object_name": "FENGYUN 1C DEB",
        "meta_object_id": "1999-025CVF",
        "meta_epoch": "2025-12-01T19:52:12.211968",
        "meta_mean_motion": 13.47100658,
        "meta_eccentricity": 0.03328885,
        "meta_inclination": 99.4197,
        "meta_ra_of_asc_node": 283.8685,
        "meta_arg_of_pericenter": 52.3889,
        "meta_mean_anomaly": 310.6974,
        "meta_ephemeris_type": 0,
        "meta_classification_type": "U",
        "meta_norad_cat_id": 32209,
        "meta_element_set_no": 999,
        "meta_rev_at_epoch": 89829,
        "meta_bstar": 0.002968545,
        "meta_mean_motion_dot": 2.491e-05,
        "meta_mean_motion_ddot": 0,
        "tle_line1": "1 32209U 99025CVF 25335.82791912  .00002491  00000+0  29685-2 0  9995",
        "tle_line2": "2 32209  99.4197 283.8685 0332888  52.3889 310.6974 13.47100658898295"
      },
      "geometry": {
        "type": "Point",
        "coordinates": [
          -60.37812676519294,
          -42.30727830625147
        ]
      }
    },
    {
      "type": "Feature",
      "properties": {
        "norad_id": 32212,
        "name": "FENGYUN 1C DEB",
        "group": "fengyun-1c-debris",
        "lat": 79.67879358267592,
        "lon": 11.672026407225058,
        "alt_km": 651.6477811423683,
        "timestamp": "2025-12-09T07:41:33.494808+00:00",
        "meta_object_name": "FENGYUN 1C DEB",
        "meta_object_id": "1999-025CVJ",
        "meta_epoch": "2025-12-07T05:25:21.707616",
        "meta_mean_motion": 14.4029402,
        "meta_eccentricity": 0.01380025,
        "meta_inclination": 99.5739,
        "meta_ra_of_asc_node": 77.269,
        "meta_arg_of_pericenter": 94.4688,
        "meta_mean_anomaly": 297.2425,
        "meta_ephemeris_type": 0,
        "meta_classification_type": "U",
        "meta_norad_cat_id": 32212,
        "meta_element_set_no": 999,
        "meta_rev_at_epoch": 95982,
        "meta_bstar": 0.00083867725,
        "meta_mean_motion_dot": 2.917e-05,
        "meta_mean_motion_ddot": 0,
        "tle_line1": "1 32212U 99025CVJ 25341.22594569  .00002917  00000+0  83868-3 0  9996",
        "tle_line2": "2 32212  99.5739  77.2690 0138002  94.4688 297.2425 14.40294020959828"
      },
      "geometry": {
        "type": "Point",
        "coordinates": [
          11.672026407225058,
          79.67879358267592
        ]
      }
    },
    {
      "type": "Feature",
      "properties": {
        "norad_id": 32214,
        "name": "FENGYUN 1C DEB",
        "group": "fengyun-1c-debris",
        "lat": 7.3676050474448305,
        "lon": -169.79252851118207,
        "alt_km": 1003.8985773631684,
        "timestamp": "2025-12-09T07:41:33.494818+00:00",
        "meta_object_name": "FENGYUN 1C DEB",
        "meta_object_id": "1999-025CVL",
        "meta_epoch": "2025-12-08T08:30:14.117184",
        "meta_mean_motion": 13.90461739,
        "meta_eccentricity": 0.01885393,
        "meta_inclination": 99.0431,
        "meta_ra_of_asc_node": 8.0872,
        "meta_arg_of_pericenter": 51.1198,
        "meta_mean_anomaly": 325.6471,
        "meta_ephemeris_type": 0,
        "meta_classification_type": "U",
        "meta_norad_cat_id": 32214,
        "meta_element_set_no": 999,
        "meta_rev_at_epoch": 62361,
        "meta_bstar": 0.0051311209,
        "meta_mean_motion_dot": 7.327e-05,
        "meta_mean_motion_ddot": 0,
        "tle_line1": "1 32214U 99025CVL 25342.35433006  .00007327  00000+0  51311-2 0  9998",
        "tle_line2": "2 32214  99.0431   8.0872 0188539  51.1198 325.6471 13.90461739623613"
      },
      "geometry": {
        "type": "Point",
        "coordinates": [
          -169.79252851118207,
          7.3676050474448305
        ]
      }
    }
  ]
}